{"type": "FeatureCollection", "features": [ {"type": "Feature", "properties": {"norad_id": 36402, "name": "COSMOS 2460 (732)", "group": "gnss", "lat": -50.42479175919885, "lon": -72.96696551694613, "alt_km": 19129.356767381265, "timestamp": "2025-12-21T16:47:54.979846+00:00", "meta": {"OBJECT_NAME": "COSMOS 2460 (732)", "OBJECT_ID": "2010-007C", "EPOCH": "2025-12-21T10:11:10.908384", "MEAN_MOTION": 2.13106318, "ECCENTRICITY": 0.0002509, "INCLINATION": 65.525, "RA_OF_ASC_NODE": 320.48, "ARG_OF_PERICENTER": 281.7872, "MEAN_ANOMALY": 168.9418, "EPHEMERIS_TYPE": 0, "CLASSIFICATION_TYPE": "U", "NORAD_CAT_ID": 36402, "ELEMENT_SET_NO": 999, "REV_AT_EPOCH": 12294, "BSTAR": 0, "MEAN_MOTION_DOT": -4.6e-07, "MEAN_MOTION_DDOT": 0}, "tle": {"line1": "1 36402U 10007C   25355.42443181 -.00000046  00000+0  00000+0 0  9999", "line2": "2 36402  65.5250 320.4800 0002509 281.7872 168.9418  2.13106318122948"}}, "geometry": {"type": "Point", "coordinates": [-72.96696551694613, -50.42479175919885]}}, {"type": "Feature", "properties": {"norad_id": 36585, "name": "GPS BIIF-1  (PRN 25)", "group": "gnss", "lat": 4.343997304757208, "lon": 32.59551654327761, "alt_km": 20290.98429033056, "timestamp": "2025-12-21T16:47:54.979858+00:00", "meta": {"OBJECT_NAME": "GPS BIIF-1  (PRN 25)", "OBJECT_ID": "2010-022A", "EPOCH": "2025-12-21T05:24:38.676096", "MEAN_MOTION": 2.00553675, "ECCENTRICITY": 0.0126455, "INCLINATION": 54.2988, "RA_OF_ASC_NODE": 215.7316, "ARG_OF_PERICENTER": 65.181, "MEAN_ANOMALY": 125.5392, "EPHEMERIS_TYPE": 0, "CLASSIFICATION_TYPE": "U", "NORAD_CAT_ID": 36585, "ELEMENT_SET_NO": 999, "REV_AT_EPOCH": 11402, "BSTAR": 0, "MEAN_MOTION_DOT": 7.7e-07, "MEAN_MOTION_DDOT": 0}, "tle": {"line1": "1 36585U 10022A   25355.22544764  .00000077  00000+0  00000+0 0  9998", "line2": "2 36585  54.2988 215.7316 0126455  65.1810 125.5392  2.00553675114022"}}, "geometry": {"type": "Point", "coordinates": [32.59551654327761, 4.343997304757208]}}, {"type": "Feature", "properties": {"norad_id": 36828, "name": "BEIDOU-2 IGSO-1 (C06)", "group": "gnss", "lat": -51.07662323802945, "lon": 101.41854928903633, "alt_km": 35718.12354803252, "timestamp": "2025-12-21T16:47:54.979870+00:00", "meta": {"OBJECT_NAME": "BEIDOU-2 IGSO-1 (C06)", "OBJECT_ID": "2010-036A", "EPOCH": "2025-12-20T21:47:26.739168", "MEAN_MOTION": 1.00282395, "ECCENTRICITY": 0.0051798, "INCLINATION": 54.2882, "RA_OF_ASC_NODE": 164.5739, "ARG_OF_PERICENTER": 215.2932, "MEAN_ANOMALY": 144.6604, "EPHEMERIS_TYPE": 0, "CLASSIFICATION_TYPE": "U", "NORAD_CAT_ID": 36828, "ELEMENT_SET_NO": 999, "REV_AT_EPOCH": 5631, "BSTAR": 0, "MEAN_MOTION_DOT": -5.5e-07, "MEAN_MOTION_DDOT": 0}, "tle": {"line1": "1 36828U 10036A   25354.90794837 -.00000055  00000+0  00000+0 0  9992", "line2": "2 36828  54.2882 164.5739 0051798 215.2932 144.6604  1.00282395 56317"}}, "geometry": {"type": "Point", "coordinates": [101.41854928903633, -51.07662323802945]}}, {"type": "Feature", "properties": {"norad_id": 37210, "name": "BEIDOU-2 G4 (C04)", "group": "gnss", "lat": 3.0767561036632483, "lon": 142.4458664747741, "alt_km": 35808.091708885746, "timestamp": "2025-12-21T16:47:54.979882+00:00", "meta": {"OBJECT_NAME": "BEIDOU-2 G4 (C04)", "OBJECT_ID": "2010-057A", "EPOCH": "2025-12-21T13:43:23.774016", "MEAN_MOTION": 1.0027197, "ECCENTRICITY": 0.0010422, "INCLINATION": 3.2053, "RA_OF_ASC_NODE": 69.9056, "ARG_OF_PERICENTER": 193.0897, "MEAN_ANOMALY": 193.3276, "EPHEMERIS_TYPE": 0, "CLASSIFICATION_TYPE": "U", "NORAD_CAT_ID": 37210, "ELEMENT_SET_NO": 999, "REV_AT_EPOCH": 5551, "BSTAR": 0, "MEAN_MOTION_DOT": -9.1e-07, "MEAN_MOTION_DDOT": 0}, "tle": {"line1": "1 37210U 10057A   25355.57180294 -.00000091  00000+0  00000+0 0  9991", "line2": "2 37210   3.2053  69.9056 0010422 193.0897 193.3276  1.00271970 55513"}}, "geometry": {"type": "Point", "coordinates": [142.4458664747741, 3.0767561036632483]}}, {"type": "Feature", "properties": {"norad_id": 37256, "name": "BEIDOU-2 IGSO-2 (C07)", "group": "gnss", "lat": 2.9481554627719366, "lon": 91.36515079681831, "alt_km": 35626.416216776284, "timestamp": "2025-12-21T16:47:54.979895+00:00", "meta": {"OBJECT_NAME": "BEIDOU-2 IGSO-2 (C07)", "OBJECT_ID": "2010-068A", "EPOCH": "2025-12-21T13:27:35.185824", "MEAN_MOTION": 1.00283695, "ECCENTRICITY": 0.004851, "INCLINATION": 47.8698, "RA_OF_ASC_NODE": 274.0408, "ARG_OF_PERICENTER": 216.3833, "MEAN_ANOMALY": 269.8083, "EPHEMERIS_TYPE": 0, "CLASSIFICATION_TYPE": "U", "NORAD_CAT_ID": 37256, "ELEMENT_SET_NO": 999, "REV_AT_EPOCH": 5501, "BSTAR": 0, "MEAN_MOTION_DOT": -1.86e-06, "MEAN_MOTION_DDOT": 0}, "tle": {"line1": "1 37256U 10068A   25355.56082391 -.00000186  00000+0  00000+0 0  9996", "line2": "2 37256  47.8698 274.0408 0048510 216.3833 269.8083  1.00283695 55017"}}, "geometry": {"type": "Point", "coordinates": [91.36515079681831, 2.9481554627719366]}}, {"type": "Feature", "properties": {"norad_id": 37384, "name": "BEIDOU-2 IGSO-3 (C08)", "group": "gnss", "lat": 40.796734423855185, "lon": 68.99178943157156, "alt_km": 35897.011056849406, "timestamp": "2025-12-21T16:47:54.979906+00:00", "meta": {"OBJECT_NAME": "BEIDOU-2 IGSO-3 (C08)", "OBJECT_ID": "2011-013A", "EPOCH": "2025-12-21T13:47:18.522816", "MEAN_MOTION": 1.00268792, "ECCENTRICITY": 0.0035379, "INCLINATION": 62.1546, "RA_OF_ASC_NODE": 41.8324, "ARG_OF_PERICENTER": 187.6182, "MEAN_ANOMALY": 175.1134, "EPHEMERIS_TYPE": 0, "CLASSIFICATION_TYPE": "U", "NORAD_CAT_ID": 37384, "ELEMENT_SET_NO": 999, "REV_AT_EPOCH": 5388, "BSTAR": 0, "MEAN_MOTION_DOT": -1.61e-06, "MEAN_MOTION_DDOT": 0}, "tle": {"line1": "1 37384U 11013A   25355.57451994 -.00000161  00000+0  00000+0 0  9992", "line2": "2 37384  62.1546  41.8324 0035379 187.6182 175.1134  1.00268792 53884"}}, "geometry": {"type": "Point", "coordinates": [68.99178943157156, 40.796734423855185]}}, {"type": "Feature", "properties": {"norad_id": 37605, "name": "GSAT-8 (GAGAN/PRN 127)", "group": "gnss", "lat": -1.1973307709674772, "lon": 37.65282577468701, "alt_km": 35809.21044743234, "timestamp": "2025-12-21T16:47:54.979918+00:00", "meta": {"OBJECT_NAME": "GSAT-8 (GAGAN/PRN 127)", "OBJECT_ID": "2011-022A", "EPOCH": "2025-12-21T03:11:14.180064", "MEAN_MOTION": 1.00270422, "ECCENTRICITY": 0.00088018, "INCLINATION": 1.6701, "RA_OF_ASC_NODE": 84.1097, "ARG_OF_PERICENTER": 186.106, "MEAN_ANOMALY": 282.6239, "EPHEMERIS_TYPE": 0, "CLASSIFICATION_TYPE": "U", "NORAD_CAT_ID": 37605, "ELEMENT_SET_NO": 999, "REV_AT_EPOCH": 5143, "BSTAR": 0, "MEAN_MOTION_DOT": 1.07e-06, "MEAN_MOTION_DDOT": 0}, "tle": {"line1": "1 37605U 11022A   25355.13280301  .00000107  00000+0  00000+0 0  9991", "line2": "2 37605   1.6701  84.1097 0008801 186.1060 282.6239  1.00270422 51439"}}, "geometry": {"type": "Point", "coordinates": [37.65282577468701, -1.1973307709674772]}}, {"type": "Feature", "properties": {"norad_id": 37763, "name": "BEIDOU-2 IGSO-4 (C09)", "group": "gnss", "lat": -54.51266814862602, "lon": 79.02075196223596, "alt_km": 35311.322825356554, "timestamp": "2025-12-21T16:47:54.979931+00:00", "meta": {"OBJECT_NAME": "BEIDOU-2 IGSO-4 (C09)", "OBJECT_ID": "2011-038A", "EPOCH": "2025-12-21T10:06:26.864064", "MEAN_MOTION": 1.00280083, "ECCENTRICITY": 0.0149156, "INCLINATION": 54.5854, "RA_OF_ASC_NODE": 167.2693, "ARG_OF_PERICENTER": 230.0944, "MEAN_ANOMALY": 299.1265, "EPHEMERIS_TYPE": 0, "CLASSIFICATION_TYPE": "U", "NORAD_CAT_ID": 37763, "ELEMENT_SET_NO": 999, "REV_AT_EPOCH": 5286, "BSTAR": 0, "MEAN_MOTION_DOT": 5.9e-07, "MEAN_MOTION_DDOT": 0}, "tle": {"line1": "1 37763U 11038A   25355.42114426  .00000059  00000+0  00000+0 0  9995", "line2": "2 37763  54.5854 167.2693 0149156 230.0944 299.1265  1.00280083 52868"}}, "geometry": {"type": "Point", "coordinates": [79.02075196223596, -54.51266814862602]}}, {"type": "Feature", "properties": {"norad_id": 37846, "name": "GSAT0101 (GALILEO-PFM)", "group": "gnss", "lat": 0.1485742580240668, "lon": -13.337259466427675, "alt_km": 23215.039166621056, "timestamp": "2025-12-21T16:47:54.979943+00:00", "meta": {"OBJECT_NAME": "GSAT0101 (GALILEO-PFM)", "OBJECT_ID": "2011-060A", "EPOCH": "2025-12-21T02:42:49.222080", "MEAN_MOTION": 1.70475776, "ECCENTRICITY": 0.000321, "INCLINATION": 57.0509, "RA_OF_ASC_NODE": 346.5929, "ARG_OF_PERICENTER": 319.8352, "MEAN_ANOMALY": 40.1502, "EPHEMERIS_TYPE": 0, "CLASSIFICATION_TYPE": "U", "NORAD_CAT_ID": 37846, "ELEMENT_SET_NO": 999, "REV_AT_EPOCH": 8808, "BSTAR": 0, "MEAN_MOTION_DOT": -6.8e-07, "MEAN_MOTION_DDOT": 0}, "tle": {"line1": "1 37846U 11060A   25355.11306970 -.00000068  00000+0  00000+0 0  9996", "line2": "2 37846  57.0509 346.5929 0003210 319.8352  40.1502  1.70475776 88081"}}, "geometry": {"type": "Point", "coordinates": [-13.337259466427675, 0.1485742580240668]}}, {"type": "Feature", "properties": {"norad_id": 37847, "name": "GSAT0102 (GALILEO-FM2)", "group": "gnss", "lat": 36.89727598142734, "lon": 15.706524781584786, "alt_km": 23218.263044872238, "timestamp": "2025-12-21T16:47:54.979955+00:00", "meta": {"OBJECT_NAME": "GSAT0102 (GALILEO-FM2)", "OBJECT_ID": "2011-060B", "EPOCH": "2025-12-21T07:52:29.961120", "MEAN_MOTION": 1.70476011, "ECCENTRICITY": 0.0005151, "INCLINATION": 57.0515, "RA_OF_ASC_NODE": 346.5875, "ARG_OF_PERICENTER": 312.968, "MEAN_ANOMALY": 224.4746, "EPHEMERIS_TYPE": 0, "CLASSIFICATION_TYPE": "U", "NORAD_CAT_ID": 37847, "ELEMENT_SET_NO": 999, "REV_AT_EPOCH": 8809, "BSTAR": 0, "MEAN_MOTION_DOT": -6.8e-07, "MEAN_MOTION_DDOT": 0}, "tle": {"line1": "1 37847U 11060B   25355.32812455 -.00000068  00000+0  00000+0 0  9990", "line2": "2 37847  57.0515 346.5875 0005151 312.9680 224.4746  1.70476011 88094"}}, "geometry": {"type": "Point", "coordinates": [15.706524781584786, 36.89727598142734]}}]}